KMSP 232049Z 2321/2424 29013G20KT P6SM FEW100 BKN150
     FM232200 29010KT P6SM SCT100
     FM240700 02007KT P6SM BKN080
     FM241200 04007KT P6SM OVC080
     FM241800 05009KT P6SM -SHRA OVC050=